Company,Address,City,Mailing State,Zip,Common Company Name,LANDLINE,MOBILE
ACCU-SPAN TRUSS CO,1891 HIGH ST,LONGWOOD,FL,32750-3721,ACCU-SPAN TRUSS CO,,
QUALITY PLYWOOD SPEC INC,1640 TIMOCUAN WAY,LONGWOOD,FL,32750-3729,QUALITY PLYWOOD SPEC INC,,
TITAN BUILDING SUPPLY,1897 HIGH ST,LONGWOOD,FL,32750-3721,TITAN BUILDING SUPPLY,,
VITRALUM GLASS SOLUTIONS,747 FLEET FINANCIAL CT,LONGWOOD,FL,32750-3726,VITRALUM GLASS SOLUTIONS,,
BEN'S PAINT SUPPLY,716 N US HIGHWAY 17 92,LONGWOOD,FL,32750-3276,BEN'S PAINT SUPPLY,,
TRU DIMENSIONS PRINTING,2100 N RONALD REAGAN BL # 1024,LONGWOOD,FL,32750-3530,TRU DIMENSIONS PRINTING,,
SCREEN CO,2120 N RONALD REAGAN BLVD,LONGWOOD,FL,32750-3529,SCREEN CO,,
ASSOCIATED GARAGE DOORS INC,2100 N RONALD REAGAN BL # 1012,LONGWOOD,FL,32750-3530,ASSOCIATED GARAGE DOORS INC,,
SUNNILAND CORP,1735 STATE ROAD 419,LONGWOOD,FL,32750-3781,SUNNILAND CORP,,
COLD ZONE AUTO A C,1694 SUNSET DR,LONGWOOD,FL,32750-3751,COLD ZONE AUTO A C,,
KAZMA AUTO SALES,3400 N US HIGHWAY 17 92,LONGWOOD,FL,32750-3712,KAZMA AUTO SALES,,
GALLOBA AUTO CONNECTION LLC,1694 TIMOCUAN WAY # 122,LONGWOOD,FL,32750-3728,GALLOBA AUTO CONNECTION LLC,,
JEFFREY AUTOS LLC,3234 N US HIGHWAY 17 92,LONGWOOD,FL,32750-3748,JEFFREY AUTOS LLC,,
SENSIBLE CHOICE AUTO SALE,3270 N US HIGHWAY 17 92,LONGWOOD,FL,32750-3748,SENSIBLE CHOICE AUTO SALE,,
STRICKLAND AUTOMOTIVE INC,930 SILKWOOD CT,LONGWOOD,FL,32750-2604,STRICKLAND AUTOMOTIVE INC,,
RUBENS AUTO MOTOR INC,1010 N US HIGHWAY 17 92,LONGWOOD,FL,32750-3100,RUBENS AUTO MOTOR INC,,
RUBEN'S TIRE,930 N US HIGHWAY 17 92,LONGWOOD,FL,32750-3156,RUBEN'S TIRE,,
TAAFE TIRE ENTERPRISES INC,3190 N US HIGHWAY 17 92,LONGWOOD,FL,32750-3708,TAAFE TIRE ENTERPRISES INC,,
SPEEDY FOOD MART,1064 N US HIGHWAY 17 92,LONGWOOD,FL,32750-3153,SPEEDY FOOD MART,,
BOAT & RV PARKING,1025 N US HIGHWAY 17 92,LONGWOOD,FL,32750-3168,BOAT & RV PARKING,,
JAY STUART MARINE,731 N US HIGHWAY 17 92 # 103,LONGWOOD,FL,32750-3639,JAY STUART MARINE,,
BMC BOATS,3175 N US HIGHWAY 17 92,LONGWOOD,FL,32750-3747,BMC BOATS,,
BOAT WRENCH,720 N US HIGHWAY 17 92,LONGWOOD,FL,32750-3293,BOAT WRENCH,,
SKY POWERSPORTS NORTH ORLANDO,855 N US HIGHWAY 17 92,LONGWOOD,FL,32750-3167,SKY POWERSPORTS NORTH ORLANDO,,
MID FLORIDA GOLF CAR DISTRS,750 N US HIGHWAY 17 92,LONGWOOD,FL,32750-3293,MID FLORIDA GOLF CAR DISTRS,,
MID-FLORIDA GOLF CARS INC,750 N US HIGHWAY 17 92,LONGWOOD,FL,32750-3293,MID-FLORIDA GOLF CARS INC,,
SOUTHERN AUTO LIQUIDATORS,1931 HIGH ST,LONGWOOD,FL,32750-3721,SOUTHERN AUTO LIQUIDATORS,,
ODERAY ARANGO OFFICE,975 N US HIGHWAY 17 92,LONGWOOD,FL,32750-3157,ODERAY ARANGO OFFICE,,
AUTOMART OF SEMINOLE,3401 N US HIGHWAY 17 92,LONGWOOD,FL,32750-3771,AUTOMART OF SEMINOLE,,
BOOMERS TRUCKS & SUVS,3811 N RONALD REAGAN BLVD,LONGWOOD,FL,32750-3772,BOOMERS TRUCKS & SUVS,,
SOUTHERN AUTO EXCHANGE,1040 N US HIGHWAY 17 92,LONGWOOD,FL,32750-3153,SOUTHERN AUTO EXCHANGE,,
ABC ORLANDO,2800 N US HIGHWAY 17 92,LONGWOOD,FL,32750-3717,ABC ORLANDO,,
PARKS LINCOLN OF LONGWOOD,3505 N US HIGHWAY 17 92,LONGWOOD,FL,32750-3771,PARKS LINCOLN OF LONGWOOD,,
EXPORT AUTO,3230 N US HIGHWAY 17 92,LONGWOOD,FL,32750-3748,EXPORT AUTO,,
BILL RAY NISSAN,2724 N US HIGHWAY 17 92,LONGWOOD,FL,32750-3782,BILL RAY NISSAN,,
BROTHER'S FURNITURE-SLONE'S,730 N US HIGHWAY 17 92,LONGWOOD,FL,32750-3293,BROTHER'S FURNITURE-SLONE'S,,
LSR CUSTOM CABINETS,1977 HIGH ST,LONGWOOD,FL,32750-3711,LSR CUSTOM CABINETS,,
HOMECRAFTERS USA INC,1685 TIMOCUAN WAY # 109,LONGWOOD,FL,32750-2601,HOMECRAFTERS USA INC,,
RATTAN & WICKER WORLD,751 GENERAL HUTCHINSON PKWY,LONGWOOD,FL,32750-3700,RATTAN & WICKER WORLD,,
WALK ON WOOD,753 N US HIGHWAY 17 92 # 105D,LONGWOOD,FL,32750-3262,WALK ON WOOD,,
MOLINA'S CREATIONS,2290 N RONALD REAGAN BLVD,LONGWOOD,FL,32750-3534,MOLINA'S CREATIONS,,
RAY'S APPLIANCES,731 N US HIGHWAY 17 92,LONGWOOD,FL,32750-3639,RAY'S APPLIANCES,,
PHANTOM TECHNOLOGIES INC,2280 N RONALD REAGAN BL # 103,LONGWOOD,FL,32750-3519,PHANTOM TECHNOLOGIES INC,,
BPB SURPLUS,1967 HIGH ST,LONGWOOD,FL,32750-3711,BPB SURPLUS,,
FURNITURE WAREHOUSE,1650 TIMOCUAN WAY,LONGWOOD,FL,32750-3729,FURNITURE WAREHOUSE,,
FUN STUFF STORAGE,1025 N US HIGHWAY 17 92,LONGWOOD,FL,32750-3168,FUN STUFF STORAGE,,
BIG TREE SELF STORAGE,746 FLEET FINANCIAL CT,LONGWOOD,FL,32750-3725,BIG TREE SELF STORAGE,,
BUCK LUMBER & SUPPLY INC,1985 STATE ROAD 419,LONGWOOD,FL,32750-3889,BUCK LUMBER & SUPPLY INC,,
RSSR LLC,1917 HIGH ST,LONGWOOD,FL,32750-3721,RSSR LLC,,
POSSE,1687 TIMOCUAN WAY # 109,LONGWOOD,FL,32750-2602,POSSE,,
CLOSET FACTORY,1620 TIMOCUAN WAY # 124,LONGWOOD,FL,32750-2606,CLOSET FACTORY,,
VERIZON WIRELESS,1064 N US HIGHWAY 17 92,LONGWOOD,FL,32750-3153,VERIZON WIRELESS,,
ABC AUTO AUCTION,2800 N US HIGHWAY 17 92,LONGWOOD,FL,32750-3717,ABC AUTO AUCTION,,
USA SERVICES-SUPER SWEEP,448 SPRING HAMMOCK CT,LONGWOOD,FL,32750-3723,USA SERVICES-SUPER SWEEP,,
AVATAR PUBLISHING GROUP,2290 N RONALD REAGAN BLVD,LONGWOOD,FL,32750-3534,AVATAR PUBLISHING GROUP,,
SUNSHINE PUBLISHERS INC,1333 N US HIGHWAY 17 92,LONGWOOD,FL,32750-3741,SUNSHINE PUBLISHERS INC,,
XPERIENT,2290 N RONALD REAGAN BLVD #136,LONGWOOD,FL,32750-3534,XPERIENT,,
AHIY TIDE TRADE & PUBLIC,1687 TIMOCUAN WAY # 113,LONGWOOD,FL,32750-2602,AHIY TIDE TRADE & PUBLIC,,
ADVANCED POWDER COATING OF FL,754 FLEET FINANCIAL CT # 102,LONGWOOD,FL,32750-2610,ADVANCED POWDER COATING OF FL,,
SEVEN PLASTICS INC,1680 TIMOCUAN WAY,LONGWOOD,FL,32750-3729,SEVEN PLASTICS INC,,
SIGN KING INC,726 N US HIGHWAY 17 92,LONGWOOD,FL,32750-3298,SIGN KING INC,,
DEARBORN ELECTRONICS,1221 N US HIGHWAY 17 92,LONGWOOD,FL,32750-3739,DEARBORN ELECTRONICS,,
APEX PRECISION MACHANING INC,1625 TIMOCUAN WAY # 121,LONGWOOD,FL,32750-3775,APEX PRECISION MACHANING INC,,
IBM,804 NORMAN CT,LONGWOOD,FL,32750-3790,IBM,,
CLASSIC FLOORING INSTALLATION,1687 TIMOCUAN WAY # 109,LONGWOOD,FL,32750-2602,CLASSIC FLOORING INSTALLATION,,
ENGINEERED ENVIRONMENTS INC,1620 TIMOCUAN WAY # 130,LONGWOOD,FL,32750-2606,ENGINEERED ENVIRONMENTS INC,,
SHADOW TECHNOLOGY,2270 N RONALD REAGAN BLVD,LONGWOOD,FL,32750-3509,SHADOW TECHNOLOGY,,
SUB-COOLING,1887 HIGH ST,LONGWOOD,FL,32750-3721,SUB-COOLING,,
IRBY CONSTRUCTION CO,2480 N RONALD REAGAN BLVD,LONGWOOD,FL,32750-3743,IRBY CONSTRUCTION CO,,
WINTER SPRINGS ROOFING & RPR,2100 N RONALD REAGAN BL # 1072,LONGWOOD,FL,32750-3530,WINTER SPRINGS ROOFING & RPR,,
N-HANCE WEST SEMINOLE,1635 TIMOCUAN WAY # 107,LONGWOOD,FL,32750-3776,N-HANCE WEST SEMINOLE,,
ALL ASPHALT SVC,1891 HIGH ST,LONGWOOD,FL,32750-3721,ALL ASPHALT SVC,,
GLASS DESIGN OF ORLANDO,747 FLEET FINANCIAL CT,LONGWOOD,FL,32750-3726,GLASS DESIGN OF ORLANDO,,
SOUTHEAST ERECTORS INC,2520 N REAGAN BLVD # 148,LONGWOOD,FL,32750-3521,SOUTHEAST ERECTORS INC,,
BK ROBBINS METAL FABRICATION,1961 HIGH ST,LONGWOOD,FL,32750-3711,BK ROBBINS METAL FABRICATION,,
SEMINOLE ENTERPRISES,1700 TIMOCUAN WAY,LONGWOOD,FL,32750-3729,SEMINOLE ENTERPRISES,,
CENTRAL FLORIDA WATERPROOFING,2290 N REAGAN BLVD # 128,LONGWOOD,FL,32750-3534,CENTRAL FLORIDA WATERPROOFING,,
ECONO DRAPE,1635 TIMOCUAN WAY # 111,LONGWOOD,FL,32750-3776,ECONO DRAPE,,
CORNERSTONE TINY HOMES,1687 TIMOCUAN WAY,LONGWOOD,FL,32750-2602,CORNERSTONE TINY HOMES,,
HEATHROW CONSTRUCTIONS,1625 TIMOCUAN WAY,LONGWOOD,FL,32750-3775,HEATHROW CONSTRUCTIONS,,
FLORIDA STATE TREE SVC,1810 STATE ROAD 419,LONGWOOD,FL,32750-3756,FLORIDA STATE TREE SVC,,
D & G GENERAL CONTRACTING CO,753 FLEET FINANCIAL CT,LONGWOOD,FL,32750-3725,D & G GENERAL CONTRACTING CO,,
DAVID J SMITH INC,753 N US HIGHWAY 17 92,LONGWOOD,FL,32750-3262,DAVID J SMITH INC,,
PARC PET SUITE,700 N US HIGHWAY 17 92,LONGWOOD,FL,32750-3276,PARC PET SUITE,,
SUPERIOR SHEDS INC,1057 N US HIGHWAY 17 92,LONGWOOD,FL,32750-3169,SUPERIOR SHEDS INC,,
PURO CLEAN,1685 TIMOCUAN WAY # 101,LONGWOOD,FL,32750-2601,PURO CLEAN,,
K & L GRADING,1501 TIMOCUAN WAY,LONGWOOD,FL,32750-3714,K & L GRADING,,
STATE FARM INSURANCE,3695 N RONALD REAGAN BLVD,LONGWOOD,FL,32750-3745,STATE FARM INSURANCE,,
CENTRO REAL ESTATE GROUP,754 FLEET FINANCIAL CT # 300,LONGWOOD,FL,32750-2610,CENTRO REAL ESTATE GROUP,,
ARLINGTON HOMES,1971 HIGH ST,LONGWOOD,FL,32750-3711,ARLINGTON HOMES,,
SERVICE MASTER CO,1694 TIMOCUAN WAY # 146,LONGWOOD,FL,32750-3728,SERVICE MASTER CO,,
CO SHA HAIR DESIGN,3260 N US HIGHWAY 17 92 # 108,LONGWOOD,FL,32750-3738,CO SHA HAIR DESIGN,,
U-HAUL NEIGHBORHOOD DEALER,2095 N RONALD REAGAN BLVD,LONGWOOD,FL,32750-3506,U-HAUL NEIGHBORHOOD DEALER,,
WINTER SPRINGS COLLISION,753 N US HIGHWAY 17 92 # B,LONGWOOD,FL,32750-3262,WINTER SPRINGS COLLISION,,
ENTERPRISE RENT-A-CAR,3505 N US HIGHWAY 17 92,LONGWOOD,FL,32750-3771,ENTERPRISE RENT-A-CAR,,
ECONO AUTO COLLISION & PNTNG,725 N US HIGHWAY 17 92,LONGWOOD,FL,32750-3261,ECONO AUTO COLLISION & PNTNG,,
FRED'S MOBILE SVC,1045 N US HIGHWAY 17 92,LONGWOOD,FL,32750-3169,FRED'S MOBILE SVC,,
EURO GARAGE,704 GENERAL HUTCHINSON PKWY,LONGWOOD,FL,32750-2607,EURO GARAGE,,
RUSSELL'S PAINT & BODY,1790 TIMOCUAN WAY,LONGWOOD,FL,32750-3774,RUSSELL'S PAINT & BODY,,
LAMOTTA ENTERPRISES INC,715 N US HIGHWAY 17 92 # 105,LONGWOOD,FL,32750-3205,LAMOTTA ENTERPRISES INC,,
ROBERTSON'S AUTO & TRUCK SVC,433 SPRING HAMMOCK CT,LONGWOOD,FL,32750-3722,ROBERTSON'S AUTO & TRUCK SVC,,
WHEELS R US,920 N US HIGHWAY 17 92,LONGWOOD,FL,32750-3158,WHEELS R US,,
RELIABLE CONSTRUCTION,1917 HIGH ST,LONGWOOD,FL,32750-3721,RELIABLE CONSTRUCTION,,
FINANCIAL HEALTH & FITNESS LTC,2290 N REAGAN BLVD # 140,LONGWOOD,FL,32750-3534,FINANCIAL HEALTH & FITNESS LTC,,
ARTISTIC COVERINGS INC,1685 TIMOCUAN WAY # 117,LONGWOOD,FL,32750-2601,ARTISTIC COVERINGS INC,,
SNOW-WHITE WATER CONDITIONING,757 N US HIGHWAY 17 92 # 110D,LONGWOOD,FL,32750-3263,SNOW-WHITE WATER CONDITIONING,,
CSM PROMOTIONS & AD SPC,2290 N RONALD REAGAN BLVD,LONGWOOD,FL,32750-3534,CSM PROMOTIONS & AD SPC,,
MAIN STREET MARKETING INC,1687 TIMOCUAN WAY # 113,LONGWOOD,FL,32750-2602,MAIN STREET MARKETING INC,,
NETWORK SOUND & VIDEO INC,2520 N RONALD REAGAN BL # 100,LONGWOOD,FL,32750-3521,NETWORK SOUND & VIDEO INC,,
AMY INTERIORS OF FL,1685 TIMOCUAN WAY # 109,LONGWOOD,FL,32750-2601,AMY INTERIORS OF FL,,
PRO-STAFF TERMITE & PEST CNTRL,2100 N REAGAN BLVD # 1048,LONGWOOD,FL,32750-3530,PRO-STAFF TERMITE & PEST CNTRL,,
HOLLYWOOD EAST PEST CONTROL,1700 SUNSET DR,LONGWOOD,FL,32750-3754,HOLLYWOOD EAST PEST CONTROL,,
CERTIFIED COMPUTER SOLUTIONS,754 FLEET FINANCIAL CT # 300,LONGWOOD,FL,32750-2610,CERTIFIED COMPUTER SOLUTIONS,,
ARCTICA ICE CREAM,753 FLEET FINANCIAL CT,LONGWOOD,FL,32750-3725,ARCTICA ICE CREAM,,
RUBEN'S BBQ SANDWICH TO GO,930 N US HIGHWAY 17 92,LONGWOOD,FL,32750-3156,RUBEN'S BBQ SANDWICH TO GO,,
ORDER UP CAFE,1700 SUNSET DR,LONGWOOD,FL,32750-3754,ORDER UP CAFE,,
HAPPY TERIYAKI,3260 N US HIGHWAY 17 92 # 100,LONGWOOD,FL,32750-3735,HAPPY TERIYAKI,,
US PAWN & AUTO INC,821 N US HIGHWAY 17 92,LONGWOOD,FL,32750-3640,US PAWN & AUTO INC,,
CHERRY PICKERS CONSIGNMENT,885 N US HIGHWAY 17 92,LONGWOOD,FL,32750-3167,CHERRY PICKERS CONSIGNMENT,,
FIRST FINANCIAL,2290 N REAGAN BLVD # 156,LONGWOOD,FL,32750-3534,FIRST FINANCIAL,,
FLEET FINANCIAL CTR INC,754 FLEET FINANCIAL CT # 300,LONGWOOD,FL,32750-2610,FLEET FINANCIAL CTR INC,,
JOHNNY G SALES,1917 HIGH ST,LONGWOOD,FL,32750-3721,JOHNNY G SALES,,
NATIVITY CATHOLIC CHURCH,3255 N RONALD REAGAN BLVD,LONGWOOD,FL,32750-3742,NATIVITY CATHOLIC CHURCH,,
GCI INC,2290 N REAGAN BLVD # 100,LONGWOOD,FL,32750-3534,GCI INC,,
A TOT'S WORLD,900 SILKWOOD CT,LONGWOOD,FL,32750-2604,A TOT'S WORLD,,
FLORIDA HIGHWAYS SAFETY PRGRMS,855 N US HIGHWAY 17 92,LONGWOOD,FL,32750-3167,FLORIDA HIGHWAYS SAFETY PRGRMS,,
NETWORK CONNECTIONS GROUP USA,221 SOLDIERS CREEK PL,LONGWOOD,FL,32750-8412,NETWORK CONNECTIONS GROUP USA,,
SOUTHERN MOSQUITO CONTROL SVC,1732 TIMOCUAN WAY,LONGWOOD,FL,32750-3729,SOUTHERN MOSQUITO CONTROL SVC,,
SEMINOLE CNTY DEPT-PUBC SAFETY,201 VALENTINE WAY,LONGWOOD,FL,32750-3749,SEMINOLE CNTY DEPT-PUBC SAFETY,,
SEMINOLE CNTY HAZARDOUS WASTE,1950 STATE ROAD 419,LONGWOOD,FL,32750-3872,SEMINOLE CNTY HAZARDOUS WASTE,,
SEMINOLE COUNTY SOLID WASTE,1950 STATE ROAD 419,LONGWOOD,FL,32750-3872,SEMINOLE COUNTY SOLID WASTE,,
SEMINOLE COUNTY RECYCLING PRGM,1950 STATE ROAD 419,LONGWOOD,FL,32750-3872,SEMINOLE COUNTY RECYCLING PRGM,,
COUNTY OF SEMINOLE,1950 STATE ROAD 419,LONGWOOD,FL,32750-3872,COUNTY OF SEMINOLE,,
SUNSHINE OF GAINESVILLE,2095 N RONALD REAGAN BLVD,LONGWOOD,FL,32750-3506,SUNSHINE OF GAINESVILLE,,
FLORIDA FOAM PRODUCTS INC,751 FLEET FINANCIAL CT # 113,LONGWOOD,FL,32750-2600,FLORIDA FOAM PRODUCTS INC,,
SEMINOLE COUNTY PUBLIC SCHOOLS,2985 OSPREY TRL,LONGWOOD,FL,32750-3720,SEMINOLE COUNTY PUBLIC SCHOOLS,,
SCHOOLS PUBLIC SEMINOLE COUNTY,2985 OSPREY TRL,LONGWOOD,FL,32750-3720,SCHOOLS PUBLIC SEMINOLE COUNTY,,
SOLDIERS CREEK PARK,2400 STATE ROAD 419,LONGWOOD,FL,32750-3713,SOLDIERS CREEK PARK,,
TIGER MARTIAL ARTS,2100 N RONALD REAGAN BL # 1008,LONGWOOD,FL,32750-3530,TIGER MARTIAL ARTS,,
BEST EFFORT SPORTS TRAINING,738 N US HIGHWAY 17 92,LONGWOOD,FL,32750-3293,BEST EFFORT SPORTS TRAINING,,
MEDICAL LOGISTICS INC,1687 TIMOCUAN WAY,LONGWOOD,FL,32750-2602,MEDICAL LOGISTICS INC,,
APEX TRANSMISSION INC,945 N US HIGHWAY 17 92,LONGWOOD,FL,32750-3163,APEX TRANSMISSION INC,,
CLASSIC SOFT TRIM,750 FLEET FINANCIAL CT # 130,LONGWOOD,FL,32750-2603,CLASSIC SOFT TRIM,,
AUTO ELECTRIC AVENUE,753 N US HIGHWAY 17 92 # D102,LONGWOOD,FL,32750-3262,AUTO ELECTRIC AVENUE,,
CURTESY TOWING,1850 HIGH ST,LONGWOOD,FL,32750-3721,CURTESY TOWING,,
SEMINOLE MOBILE MOWER REPAIR,1040 N US HIGHWAY 17 92,LONGWOOD,FL,32750-3153,SEMINOLE MOBILE MOWER REPAIR,,
PREMIER SPORTS PERFORMANCE,2100 N RONALD REAGAN BL # 1020,LONGWOOD,FL,32750-3530,PREMIER SPORTS PERFORMANCE,,
CROSS FIT CONDUIT,1687 TIMOCUAN WAY,LONGWOOD,FL,32750-2602,CROSS FIT CONDUIT,,
TEMPLO DE RESTAURACION EL BUEN,675 LONGWOOD HILLS RD,LONGWOOD,FL,32750-3335,TEMPLO DE RESTAURACION EL BUEN,,
EMMANUEL BAPTIST CHURCH,244 LONGWOOD HILLS RD,LONGWOOD,FL,32750-3328,EMMANUEL BAPTIST CHURCH,,
ORTHODOX CHURCH OF ST STEPHEN,1895 LAKE EMMA RD,LONGWOOD,FL,32750-7153,ORTHODOX CHURCH OF ST STEPHEN,,
ST PETKA SERBIAN ORTHODOX CHR,1990 LAKE EMMA RD,LONGWOOD,FL,32750-7127,ST PETKA SERBIAN ORTHODOX CHR,,
COMPUTER HARDWARE SVC,272 LAZY ACRES LN,LONGWOOD,FL,32750-3338,COMPUTER HARDWARE SVC,,
A-ALL ASPHALT SVC,373 LAZY ACRES LN,LONGWOOD,FL,32750-3340,A-ALL ASPHALT SVC,,
STRATEGIC TECH SYSTEMS INC,435 BRENTWOOD CLUB CV,LONGWOOD,FL,32750-3355,STRATEGIC TECH SYSTEMS INC,,
DRT MEDICAL ASSOC INC,1782 TORRINGTON CIR,LONGWOOD,FL,32750-7147,DRT MEDICAL ASSOC INC,,
AMERICAN WIRE & TERMINAL INC,1960 LAKE EMMA RD,LONGWOOD,FL,32750-7154,AMERICAN WIRE & TERMINAL INC,,
LONGSTERTH ENTERPRISES,1802 TORRINGTON CIR,LONGWOOD,FL,32750-2871,LONGSTERTH ENTERPRISES,,
M & B GROUP OF CENTRAL FLORIDA,PO BOX 520085,LONGWOOD,FL,32752-4943,M & B GROUP OF CENTRAL FLORIDA,,
AMERICAN FIRE CO,PO BOX 520218,LONGWOOD,FL,32752-7646,AMERICAN FIRE CO,,
UNIVERSAL PROPERTIES-ORLANDO,PO BOX 520339,LONGWOOD,FL,32752-5554,UNIVERSAL PROPERTIES-ORLANDO,,
RESORTS INTERNATIONAL UNLTD,PO BOX 520330,LONGWOOD,FL,32752-6774,RESORTS INTERNATIONAL UNLTD,,
H P,PO BOX 520385,LONGWOOD,FL,32752-4914,H P,,
RELIABLE SUBSTATION SVC,PO BOX 520505,LONGWOOD,FL,32752-5901,RELIABLE SUBSTATION SVC,,
MED-BILL INC,PO BOX 520531,LONGWOOD,FL,32752-5224,MED-BILL INC,,
C & J TOWING,PO BOX 520519,LONGWOOD,FL,32752-6417,C & J TOWING,,
SUSAN J WILLIAMS,PO BOX 520622,LONGWOOD,FL,32752-5468,SUSAN J WILLIAMS PA,,
COLLIS ROOFING INC,PO BOX 520668,LONGWOOD,FL,32752-7570,COLLIS ROOFING INC,,
DOMINICA RECREATION PRODUCTS,PO BOX 520700,LONGWOOD,FL,32752-6344,DOMINICA RECREATION PRODUCTS,,
TEAM TRINITY,PO BOX 520747,LONGWOOD,FL,32752-5464,TEAM TRINITY,,
PRITCHETT'S TOWING,PO BOX 520892,LONGWOOD,FL,32752-6417,PRITCHETT'S TOWING,,
AMERICAN LEAK DETECTION,PO BOX 521029,LONGWOOD,FL,32752-2968,AMERICAN LEAK DETECTION,,
BELAIR WALL SYSTEMS INC,PO BOX 521030,LONGWOOD,FL,32752-3288,BELAIR WALL SYSTEMS INC,,
N R ELECTRONICS LLC,PO BOX 521188,LONGWOOD,FL,32752-5646,N R ELECTRONICS LLC,,
L G SIMMONDS REAL ESTATE CORP,PO BOX 521266,LONGWOOD,FL,32752-5388,L G SIMMONDS REAL ESTATE CORP,,
HOME IMPROVEMENT CO,PO BOX 521354,LONGWOOD,FL,32752-5114,HOME IMPROVEMENT CO,,
TEAM LOGIC IT,PO BOX 521367,LONGWOOD,FL,32752-4673,TEAM LOGIC IT,,
INTERGALACTIC TRADING CO,PO BOX 521516,LONGWOOD,FL,32752-3779,INTERGALACTIC TRADING CO,,
JSM ELECTRONICS INC,PO BOX 521430,LONGWOOD,FL,32752-3012,JSM ELECTRONICS INC,,
JSM ELECTRONICS INC,PO BOX 521430,LONGWOOD,FL,32752-3519,JSM ELECTRONICS INC,,
DESTINY TRAVEL SVC INC,PO BOX 521634,LONGWOOD,FL,32752-6419,DESTINY TRAVEL SVC INC,,
RESPITEC MEDICAL CARE & EQUIP,PO BOX 521789,LONGWOOD,FL,32752-3520,RESPITEC MEDICAL CARE & EQUIP,,
WORD & POWER MINISTRIES,PO BOX 521870,LONGWOOD,FL,32752-3276,WORD & POWER MINISTRIES,,
FLORIDA YOUNG ARTIST'S ORCHSTR,PO BOX 521947,LONGWOOD,FL,32752-5491,FLORIDA YOUNG ARTIST'S ORCHSTR,,
T T PUBLICATIONS INC,PO BOX 522020,LONGWOOD,FL,32752-2598,T T PUBLICATIONS INC,,
UNI-PAK CORP,PO BOX 522168,LONGWOOD,FL,32752-3013,UNI-PAK CORP,,
FSIS,PO BOX 522348,LONGWOOD,FL,32752-2082,FSIS,,
MAGIC FINANCIAL SVC INC,PO BOX 522440,LONGWOOD,FL,32752-5463,MAGIC FINANCIAL SVC INC,,
FINANCIAL SECURITIES INFO SVC,PO BOX 522348,LONGWOOD,FL,32752-2082,FINANCIAL SECURITIES INFO SVC,,
PLANET GRANITE,PO BOX 522464,LONGWOOD,FL,32752-2082,PLANET GRANITE,,
REEPER HAVEN,PO BOX 522552,LONGWOOD,FL,32752-7566,REEPER HAVEN,,
HOUSE OF FLOORS,PO BOX 522618,LONGWOOD,FL,32752-5152,HOUSE OF FLOORS,,
LIGHT HOUSE CHR OF CENTRAL FL,PO BOX 420058,LONGWOOD,FL,32752-5344,LIGHT HOUSE CHR OF CENTRAL FL,,
JACKSON HEWITT TAX SVC,PO BOX 912,MT DORA,FL,32756-4410,JACKSON HEWITT TAX SVC,,
HENRICH LUKE & SWAGGERTY LLC,PO BOX 622814,OVIEDO,FL,32762-3553,HENRICH LUKE & SWAGGERTY LLC,,
WALGREENS,1201 S INTERNATIONAL PKWY,SANFORD,FL,32771-3349,WALGREENS,,
LTS IMAGING PRODUCTS INC,7726 MARKHAM BEND PL,SANFORD,FL,32771-3450,LTS IMAGING PRODUCTS INC,,
GRACIELA I MAALOUF CHAHDA MD,7412 BELLA FORESTA PL,SANFORD,FL,32771-3501,GRACIELA I MAALOUF CHAHDA MD,,
CASSANDRA D CRAIG,2008 COURTYARD LOOP # 204,SANFORD,FL,32771-3417,CASSANDRA D CRAIG,,
ADRIANA A RUEDA-BARRERA,719 TREELINE PL,SANFORD,FL,32771-6214,ADRIANA A RUEDA-BARRERA,,
SEMINOLE COUNTY TRAFFIC VLTNS,PO BOX 850,SANFORD,FL,32772-6707,SEMINOLE COUNTY TRAFFIC VLTNS,,
SEMINOLE COUNTY CRIMINAL DEPT,PO BOX 850,SANFORD,FL,32772-6707,SEMINOLE COUNTY CRIMINAL DEPT,,
SEMINOLE CNTY PUBLIC DEFENDER,PO BOX 8004,SANFORD,FL,32772-6707,SEMINOLE CNTY PUBLIC DEFENDER,,
HONORABLE RALPH E ERIKSSON,PO BOX 8002,SANFORD,FL,32772-6707,HONORABLE RALPH E ERIKSSON,,
HONORABLE MARK E HERR,PO BOX 8002,SANFORD,FL,32772-6707,HONORABLE MARK E HERR,,
SEMINOLE COUNTY JUVENILE,190 BUSH BLVD,SANFORD,FL,32773-6706,SEMINOLE COUNTY JUVENILE,,
SEMINOLE COUNTY FLORIDA,140 BUSH LOOP,SANFORD,FL,32773-6701,SEMINOLE COUNTY FLORIDA,,
SEMINOLE COUNTY ANIMAL CONTROL,232 BUSH BLVD,SANFORD,FL,32773-6198,SEMINOLE COUNTY ANIMAL CONTROL,,
SEMINOLE COUNTY DEPT-SAFETY,150 BUSH BLVD,SANFORD,FL,32773-6706,SEMINOLE COUNTY DEPT-SAFETY,,
SEMINOLE CNTY CODE ENFORCEMENT,100 BUSH BLVD,SANFORD,FL,32773-6706,SEMINOLE CNTY CODE ENFORCEMENT,,
SEMINOLE COUNTY FACILITIES,205 W COUNTY HOME RD,SANFORD,FL,32773-6190,SEMINOLE COUNTY FACILITIES,,
SEMINOLE COUNTY FLEET SVC,141 BUSH LOOP,SANFORD,FL,32773-6715,SEMINOLE COUNTY FLEET SVC,,
SEMINOLE COUNTY RISK MGMT,200 W COUNTY HOME RD,SANFORD,FL,32773-6189,SEMINOLE COUNTY RISK MGMT,,
SEMINOLE COUNTY SAFETY,200 W COUNTY HOME RD,SANFORD,FL,32773-6189,SEMINOLE COUNTY SAFETY,,
SEMINOLE CNTY JUVENILE JUSTICE,190 BUSH BLVD,SANFORD,FL,32773-6706,SEMINOLE CNTY JUVENILE JUSTICE,,
SEMINOLE COUNTY FIVE POINTS,150 BUSH BLVD,SANFORD,FL,32773-6706,SEMINOLE COUNTY FIVE POINTS,,
SEMINOLE CNTY GUARDIAN ADLITEM,190 BUSH BLVD,SANFORD,FL,32773-6706,SEMINOLE CNTY GUARDIAN ADLITEM,,
SEMINOLE COUNTY CO-OP EXT,250 W COUNTY HOME RD,SANFORD,FL,32773-6189,SEMINOLE COUNTY CO-OP EXT,,
CIRCUIT COURT CLERK,101 BUSH BLVD,SANFORD,FL,32773-6707,CIRCUIT COURT CLERK,,
HONORABLE JERRI L COLLINS,101 BUSH BLVD,SANFORD,FL,32773-6707,HONORABLE JERRI L COLLINS,,
SEMINOLE COUNTY 4H PROGRAMS,250 W COUNTY HOME RD,SANFORD,FL,32773-6189,SEMINOLE COUNTY 4H PROGRAMS,,
SEMINOLE COUNTY PROBATION,212 BUSH BLVD,SANFORD,FL,32773-6187,SEMINOLE COUNTY PROBATION,,
HONORABLE DONALD L MARBLESTONE,101 BUSH BLVD,SANFORD,FL,32773-6707,HONORABLE DONALD L MARBLESTONE,,
HONORABLE JOHN L WOODARD III,101 BUSH BLVD,SANFORD,FL,32773-6707,HONORABLE JOHN L WOODARD III,,
SEMINOLE COUNTY CRIMINAL JSTC,101 BUSH BLVD,SANFORD,FL,32773-6707,SEMINOLE COUNTY CRIMINAL JSTC,,
SEMINOLE CNTY MEDICAL QUALITY,150 BUSH BLVD,SANFORD,FL,32773-6706,SEMINOLE CNTY MEDICAL QUALITY,,
RICHARD MILLER SVC,100 BUSH BLVD,SANFORD,FL,32773-6706,RICHARD MILLER SVC,,
TIMOTHY HARRY SMITH JR SVC,100 BUSH BLVD,SANFORD,FL,32773-6706,TIMOTHY HARRY SMITH JR SVC,,
BRENTON ROBERT RUSH SVC,100 BUSH BLVD,SANFORD,FL,32773-6706,BRENTON ROBERT RUSH SVC,,
SCOTT SULLIVAN SVC,100 BUSH BLVD,SANFORD,FL,32773-6706,SCOTT SULLIVAN SVC,,
EMERGENCY COMMUNICATION/E911,150 BUSH BLVD,SANFORD,FL,32773-6706,EMERGENCY COMMUNICATION/E911,,
SEMINOLE COUNTY ADDRESSING,150 BUSH BLVD,SANFORD,FL,32773-6706,SEMINOLE COUNTY ADDRESSING,,
SEMINOLE COUNTY MUSEUM,300 BUSH BLVD,SANFORD,FL,32773-6135,SEMINOLE COUNTY MUSEUM,,
SEMINOLE COUNTY JUVENILE JSTC,190 BUSH BLVD,SANFORD,FL,32773-6706,SEMINOLE COUNTY JUVENILE JSTC,,
SEMINOLE COUNTY ROAD MNTNC,177 BUSH LOOP,SANFORD,FL,32773-6715,SEMINOLE COUNTY ROAD MNTNC,,
HONORABLE MARLENE M ALVA,101 BUSH BLVD,SANFORD,FL,32773-6707,HONORABLE MARLENE M ALVA,,
HONORABLE KENNETH R LESTER JR,101 BUSH BLVD,SANFORD,FL,32773-6707,HONORABLE KENNETH R LESTER JR,,
HONORABLE JESSICA RECKSIEDLER,101 BUSH BLVD,SANFORD,FL,32773-6707,HONORABLE JESSICA RECKSIEDLER,,
SEMINOLE COUNTY SHERIFF'S OFC,100 BUSH BLVD,SANFORD,FL,32773-6799,SEMINOLE COUNTY SHERIFF'S OFC,,
SEMINOLE CNTY EMERGENCY MGMT,150 BUSH BLVD,SANFORD,FL,32773-6706,SEMINOLE CNTY EMERGENCY MGMT,,
SERCO MANAGEMENT SVC INC,141 BUSH LOOP,SANFORD,FL,32773-6715,SERCO MANAGEMENT SVC INC,,
SEMINOLE COUNTY TEEN COURT,190 BUSH BLVD,SANFORD,FL,32773-6706,SEMINOLE COUNTY TEEN COURT,,
SEMINOLE COUNTY EMS FIRE,150 BUSH BLVD,SANFORD,FL,32773-6706,SEMINOLE COUNTY EMS FIRE,,
SEMINOLE COUNTY FIRE CHIEF,150 BUSH BLVD,SANFORD,FL,32773-6706,SEMINOLE COUNTY FIRE CHIEF,,
H K ENTERPRISES,4311 S ORLANDO DR,SANFORD,FL,32773-6118,H K ENTERPRISES,,
SEMINOLE CO SAFE KIDS CLTN,140 BUSH LOOP,SANFORD,FL,32773-6701,SEMINOLE CO SAFE KIDS CLTN,,
STOP PAYING FEES ATTY,1510 TROPIC PARK DR,SANFORD,FL,32773-6323,STOP PAYING FEES ATTY,,
BLUE BOOK SVC CTR,4114 S ORLANDO DR,SANFORD,FL,32773-6123,BLUE BOOK SVC CTR,,
FLEA WORLD,4311 S ORLANDO DR,SANFORD,FL,32773-6118,FLEA WORLD,,
PARADISE POPCORN,1450 TROPIC PARK DR,SANFORD,FL,32773-6314,PARADISE POPCORN,,
KWIK STOP FOOD STORE,4103 S ORLANDO DR,SANFORD,FL,32773-6122,KWIK STOP FOOD STORE,,
JOE ATKINS TOOLS & WORK UNFRMS,4311 S ORLANDO DR,SANFORD,FL,32773-6118,JOE ATKINS TOOLS & WORK UNFRMS,,
E Z RIDER SYSTEMS INC,4311 S ORLANDO DR,SANFORD,FL,32773-6118,E Z RIDER SYSTEMS INC,,
NAPLETON'S VOLKSWAGEN-SANFORD,4175 S ORLANDO DR,SANFORD,FL,32773-6122,NAPLETON'S VOLKSWAGEN-SANFORD,,
MASTRO IMPORTS,4113 S ORLANDO DR,SANFORD,FL,32773-6122,MASTRO IMPORTS,,
LONGWOOD TRUCK CTR,4215 S ORLANDO DR,SANFORD,FL,32773-6120,LONGWOOD TRUCK CTR,,
DIRECT CAPITAL MOTORS,4107 S ORLANDO DR,SANFORD,FL,32773-6122,DIRECT CAPITAL MOTORS,,
DIGICON TECHNOLOGY LLC,1250 TROPIC PARK DR,SANFORD,FL,32773-6304,DIGICON TECHNOLOGY LLC,,
DCC FURNITURE,4107 S ORLANDO DR,SANFORD,FL,32773-6122,DCC FURNITURE,,
US DISCOUNT FURNITURE,4311 S ORLANDO DR,SANFORD,FL,32773-6118,US DISCOUNT FURNITURE,,
D & D EURO STONE,1630 TROPIC PARK DR,SANFORD,FL,32773-6335,D & D EURO STONE,,
TIM BENJAMIN AC INC,1330 TROPIC PARK DR,SANFORD,FL,32773-6313,TIM BENJAMIN AC INC,,
PET CUTS & PUPPY CTR,4311 S ORLANDO DR,SANFORD,FL,32773-6118,PET CUTS & PUPPY CTR,,
SEMINOLE COUNTY PETRO STORAGE,150 BUSH BLVD,SANFORD,FL,32773-6706,SEMINOLE COUNTY PETRO STORAGE,,
WIRELESS AMERICA,4311 S ORLANDO DR,SANFORD,FL,32773-6118,WIRELESS AMERICA,,
FLOWERS BAKING CO,4106 S ORLANDO DR,SANFORD,FL,32773-6123,FLOWERS BAKING CO,,
PET TREE HOUSE,1290 TROPIC PARK DR,SANFORD,FL,32773-6304,PET TREE HOUSE,,
LEE A BARNETT SECONDHAND DLR,4311 S ORLANDO DR,SANFORD,FL,32773-6118,LEE A BARNETT SECONDHAND DLR,,
ENGEL BAIL BONDS,1330 TROPIC PARK DR,SANFORD,FL,32773-6313,ENGEL BAIL BONDS,,
NO COLLATERAL BAIL BONDS,1410 TROPIC PARK DR,SANFORD,FL,32773-6314,NO COLLATERAL BAIL BONDS,,
SEMINOLE COUNTY BONDIING,1610 TROPIC PARK DR,SANFORD,FL,32773-6335,SEMINOLE COUNTY BONDIING,,
QUICK RELEASE BAIL BONDS,4040 S ORLANDO DR,SANFORD,FL,32773-6124,QUICK RELEASE BAIL BONDS,,
TRINITY SERVICES GROUP,211 BUSH BLVD,SANFORD,FL,32773-6188,TRINITY SERVICES GROUP,,
M & O INTL MARKETING INC,4311 S ORLANDO DR,SANFORD,FL,32773-6118,M & O INTL MARKETING INC,,
RENAS PET SUPPLIES,4311 S ORLANDO DR # 1782,SANFORD,FL,32773-6118,RENAS PET SUPPLIES,,
SMOKELESS SENSATIONS,4311 S ORLANDO DR,SANFORD,FL,32773-6118,SMOKELESS SENSATIONS,,
VAPOR & CO,4311 S ORLANDO DR,SANFORD,FL,32773-6118,VAPOR & CO,,
MAJOR LEAGUE BARBERS,4016 S ORLANDO DR,SANFORD,FL,32773-6124,MAJOR LEAGUE BARBERS,,
OTS INTERIORS,1490 TROPIC PARK DR,SANFORD,FL,32773-6314,OTS INTERIORS,,
ABC AUTO GLASS,4103 S ORLANDO DR,SANFORD,FL,32773-6122,ABC AUTO GLASS,,
ZIP AUTO GLASS REPAIR,4103 S ORLANDO DR,SANFORD,FL,32773-6122,ZIP AUTO GLASS REPAIR,,
DENT WIZARD,4175 S ORLANDO DR,SANFORD,FL,32773-6122,DENT WIZARD,,
ENTERPRISE RENTAL CARS,4197 S ORLANDO DR,SANFORD,FL,32773-6122,ENTERPRISE RENTAL CARS,,
HERTZ RENT A CAR,4175 S ORLANDO DR # A,SANFORD,FL,32773-6122,HERTZ RENT A CAR,,
ENTERPRISE RENT-A-CAR,4205 S ORLANDO DR,SANFORD,FL,32773-6120,ENTERPRISE RENT-A-CAR,,
TROPICAL HAMMER STEELDRUM,900 COUNTRY CLUB RD,SANFORD,FL,32773-4767,TROPICAL HAMMER STEELDRUM,,
LONGWOOD CHURCH OF CHRIST,2806 S FRENCH AVE,SANFORD,FL,32773-3153,LONGWOOD CHURCH OF CHRIST,,
RKC SITE SOLUTIONS,520 W LAKE MARY BLVD # 100,SANFORD,FL,32773-7424,RKC SITE SOLUTIONS,,
EDUCA DEPT OF VOCATIONAL REHAB,520 W LAKE MARY BLVD,SANFORD,FL,32773-7424,EDUCA DEPT OF VOCATIONAL REHAB,,
SEMINOLE COUNTY CROSS CNNCTN,500 W LAKE MARY BLVD,SANFORD,FL,32773-7441,SEMINOLE COUNTY CROSS CNNCTN,,
KNA SERVICE,520 W LAKE MARY BLVD # 102,SANFORD,FL,32773-7424,KNA SERVICE,,
TURNER MARKETING,522 W LAKE MARY BLVD,SANFORD,FL,32773-7467,TURNER MARKETING,,
SEMINOLE COUNTY VETERANS SVC,534 W LAKE MARY BLVD,SANFORD,FL,32773-7400,SEMINOLE COUNTY VETERANS SVC,,
VETERANS SERVICE OFFICE,534 W LAKE MARY BLVD,SANFORD,FL,32773-7400,VETERANS SERVICE OFFICE,,
COUNTY OF SEMINOLE,520 W LAKE MARY BLVD # 103,SANFORD,FL,32773-7424,COUNTY OF SEMINOLE,,
SEMINOLE COUNTY ENVIRONMENTAL,500 W LAKE MARY BLVD,SANFORD,FL,32773-7441,SEMINOLE COUNTY ENVIRONMENTAL,,
COMMUNITY ASSISTANCE SANFORD,534 W LAKE MARY BLVD,SANFORD,FL,32773-7400,COMMUNITY ASSISTANCE SANFORD,,
SEMINOLE CNTY COMMUNITY DEVMNT,534 W LAKE MARY BLVD,SANFORD,FL,32773-7400,SEMINOLE CNTY COMMUNITY DEVMNT,,
SEMINOLE COUNTY COMMUNITY SVC,534 W LAKE MARY BLVD,SANFORD,FL,32773-7400,SEMINOLE COUNTY COMMUNITY SVC,,
RTC ENTERTAINMENT,520 W LAKE MARY BLVD # 100,SANFORD,FL,32773-7424,RTC ENTERTAINMENT,,
GARY SIEGEL,520 W LAKE MARY BLVD # 103,SANFORD,FL,32773-7424,GARY SIEGEL,,
NICOLE ROFE,520 W LAKE MARY BLVD # 102,SANFORD,FL,32773-7424,NICOLE ROFE,,
LAW OFFICES-RICHARD H WEISBERG,520 W LAKE MARY BLVD # 103,SANFORD,FL,32773-7424,LAW OFFICES-RICHARD H WEISBERG,,
CROSS FIT MUSTER STATION,3836 S ORLANDO DR,SANFORD,FL,32773-6184,CROSS FIT MUSTER STATION,,
CELLULARTRONICS,3806 S ORLANDO DR,SANFORD,FL,32773-6183,CELLULARTRONICS,,
VERIZON WIRELESS,3800 S ORLANDO DR,SANFORD,FL,32773-6183,VERIZON WIRELESS,,
BADCOCK HOME FURNITURE & MORE,650 LAKE MINNIE DR,SANFORD,FL,32773-6113,BADCOCK HOME FURNITURE & MORE,,
DE GUZMAN ORIENTAL FOOD M,3838 S ORLANDO DR,SANFORD,FL,32773-6184,DE GUZMAN ORIENTAL FOOD M,,
OFFLEASE FINANCIAL INC,3850 S ORLANDO DR,SANFORD,FL,32773-6129,OFFLEASE FINANCIAL INC,,
CUMBERLAND FARMS,3802 S ORLANDO DR,SANFORD,FL,32773-6183,CUMBERLAND FARMS,,
KWIK STOP FOOD STORE,3800 S ORLANDO DR,SANFORD,FL,32773-6183,KWIK STOP FOOD STORE,,
CERTIFIED AUTO GLASS,205 MEADOW HILLS DR,SANFORD,FL,32773-5508,CERTIFIED AUTO GLASS,,
U-HAUL MOVING & STORAGE,3851 S ORLANDO DR,SANFORD,FL,32773-6128,U-HAUL MOVING & STORAGE,,
TRULY NOLEN PEST & TERMITE,620 LAKE MINNIE DR,SANFORD,FL,32773-6113,TRULY NOLEN PEST & TERMITE,,
LIBERTY TAX SVC,3830 S ORLANDO DR,SANFORD,FL,32773-6184,LIBERTY TAX SVC,,
THERESSE AFRICAN HAIR BRAIDING,3808 S ORLANDO DR,SANFORD,FL,32773-6183,THERESSE AFRICAN HAIR BRAIDING,,
AVANT BEAUTY SALON,3840 S ORLANDO DR,SANFORD,FL,32773-6184,AVANT BEAUTY SALON,,
ASIAN DRY CLEANING & TAILORING,3846 S ORLANDO DR,SANFORD,FL,32773-6184,ASIAN DRY CLEANING & TAILORING,,
PNC BANK,3850 S ORLANDO DR,SANFORD,FL,32773-6129,PNC BANK,,
WALGREENS,3803 S ORLANDO DR,SANFORD,FL,32773-6128,WALGREENS,,
BILLABONG'S,3848 S ORLANDO DR,SANFORD,FL,32773-6184,BILLABONG'S,,
PIZZA HUT,3852 S ORLANDO DR,SANFORD,FL,32773-6129,PIZZA HUT,,
COLORADOS PRIME STEAK,3863 S ORLANDO DR,SANFORD,FL,32773-6165,COLORADOS PRIME STEAK,,
SUNNY BREEZE CAFE & RSTRNT INC,160 W LAKE MARY BLVD,SANFORD,FL,32773-5921,SUNNY BREEZE CAFE & RSTRNT INC,,
ARBY'S,3725 S ORLANDO DR,SANFORD,FL,32773-5613,ARBY'S,,
DENNY'S,3771 S ORLANDO DR,SANFORD,FL,32773-5686,DENNY'S,,
WENDY'S,3717 S ORLANDO DR,SANFORD,FL,32773-5613,WENDY'S,,
BURGER KING,3788 S ORLANDO DR,SANFORD,FL,32773-5614,BURGER KING,,
CHINA WOK,170 W LAKE MARY BLVD,SANFORD,FL,32773-5921,CHINA WOK,,
MC DONALD'S,3785 S ORLANDO DR,SANFORD,FL,32773-5686,MC DONALD'S,,
YABI SUSHI,3755 S ORLANDO DR,SANFORD,FL,32773-5613,YABI SUSHI,,
QDOBA MEXICAN GRILL,202 W LAKE MARY BLVD,SANFORD,FL,32773-5925,QDOBA MEXICAN GRILL,,
PAPA JOHN'S PIZZA,332 W LAKE MARY BLVD # 102,SANFORD,FL,32773-7442,PAPA JOHN'S PIZZA,,
CVS/PHARMACY,3798 S ORLANDO DR,SANFORD,FL,32773-5614,CVS/PHARMACY,,
TRUSTCO BANK,350 W LAKE MARY BLVD,SANFORD,FL,32773-7442,TRUSTCO BANK,,
CHASE BANK,3764 S ORLANDO DR,SANFORD,FL,32773-5614,CHASE BANK,,
ACE CASH EXPRESS,3715 S ORLANDO DR # 400,SANFORD,FL,32773-5676,ACE CASH EXPRESS,,
GAMESTOP,3715 S ORLANDO DR # 500,SANFORD,FL,32773-4500,GAMESTOP,,
NATIONWIDE INSURANCE,220 W LAKE MARY BLVD,SANFORD,FL,32773-5925,NATIONWIDE INSURANCE,,
NAILZ SPA,230 W LAKE MARY BLVD,SANFORD,FL,32773-5925,NAILZ SPA,,
HAIRMASTERS,292 W LAKE MARY BLVD # 201,SANFORD,FL,32773-5925,HAIRMASTERS,,
WYNDHAM PLACE APARTMENTS,1500 WYNDHAM CREST BLVD,SANFORD,FL,32773-6369,WYNDHAM PLACE APARTMENTS,,
DIRECT AUTO INSURANCE,3757 S ORLANDO DR,SANFORD,FL,32773-5685,DIRECT AUTO INSURANCE,,
DIRECT AUTO & LIFE INSURANCE,3757 S ORLANDO DR,SANFORD,FL,32773-5685,DIRECT AUTO & LIFE INSURANCE,,
SHERWIN-WILLIAMS,3761 S ORLANDO DR,SANFORD,FL,32773-5685,SHERWIN-WILLIAMS,,
LOWE'S HOME IMPROVEMENT,3780 S ORLANDO DR,SANFORD,FL,32773-5614,LOWE'S HOME IMPROVEMENT,,
RACETRAC,3760 S ORLANDO DR,SANFORD,FL,32773-5614,RACETRAC,,
7-ELEVEN,3795 S ORLANDO DR,SANFORD,FL,32773-5686,7-ELEVEN,,
TIRE CITY,3776 S ORLANDO DR,SANFORD,FL,32773-5614,TIRE CITY,,
HEADQUARTER HYUNDAI,3775 S ORLANDO DR,SANFORD,FL,32773-5686,HEADQUARTER HYUNDAI,,
DUNKIN' DONUTS,3768 S ORLANDO DR,SANFORD,FL,32773-5614,DUNKIN' DONUTS,,
PAYLESS SHOE SOURCE,3715 S ORLANDO DR # 100,SANFORD,FL,32773-5676,PAYLESS SHOE SOURCE,,
AT&T STORE,260 W LAKE MARY BLVD,SANFORD,FL,32773-5925,AT&T STORE,,
SPRINT STORE BY PCS EXPERTS,3715 S ORLANDO DR # 300,SANFORD,FL,32773-5676,SPRINT STORE BY PCS EXPERTS,,
ONE TAXI ONLY,250 W LAKE MARY BLVD,SANFORD,FL,32773-5925,ONE TAXI ONLY,,
E POST,250 W LAKE MARY BLVD,SANFORD,FL,32773-5925,E POST,,
REB OIL INC,360 W LAKE MARY BLVD,SANFORD,FL,32773-7442,REB OIL INC,,
TILE & CARPET OF LAKE MARY,140 W LAKE MARY BLVD,SANFORD,FL,32773-5921,TILE & CARPET OF LAKE MARY,,
PETER D WEISBRUCH DDS,200 W LAKE MARY BLVD,SANFORD,FL,32773-5925,DISTINCTIVE DENTISTRY OF SNFRD,,
BE GOOD WELLNESS CTR,220 W LAKE MARY BLVD,SANFORD,FL,32773-5925,BE GOOD WELLNESS CTR,,
QUALITY I REPAIRS,210 W LAKE MARY BLVD,SANFORD,FL,32773-5925,QUALITY I REPAIRS,,
CAR WASH PALACE II,3767 S ORLANDO DR,SANFORD,FL,32773-5686,CAR WASH PALACE II,,
EXPRESS LUBE,3767 S ORLANDO DR,SANFORD,FL,32773-5686,EXPRESS LUBE,,
HAVOLINE XPRESS LUBE,3767 S ORLANDO DR,SANFORD,FL,32773-5686,HAVOLINE XPRESS LUBE,,
THEUNDERFOLD,250 W LAKE MARY BLVD # 264,SANFORD,FL,32773-5925,THEUNDERFOLD,,
MILLENNIUM MIDDLE SCHOOL,21 LAKEVIEW AVE,SANFORD,FL,32773-5331,MILLENNIUM MIDDLE SCHOOL,,
BAY HEAD EYE CTR,820 W LAKE MARY BLVD # 104,SANFORD,FL,32773-5946,BAY HEAD EYE CTR,,
LAKE MARY SPINE & REHAB CTR,820 W LAKE MARY BLVD # 107,SANFORD,FL,32773-5946,LAKE MARY SPINE & REHAB CTR,,
CHRYSALIS CENTER FOR CHANGE,800 W LAKE MARY BLVD,SANFORD,FL,32773-5907,CHRYSALIS CENTER FOR CHANGE,,
APPLIED THOUGHT AUDITORS,820 W LAKE MARY BLVD # 201,SANFORD,FL,32773-5946,APPLIED THOUGHT AUDITORS,,
CALVARY CHAPEL LIGHTHOUSE,121 LAKE MINNIE DR,SANFORD,FL,32773-6103,CALVARY CHAPEL LIGHTHOUSE,,
WILDER ACCOUNTING & TAX SVC,820 W LAKE MARY BLVD # 108,SANFORD,FL,32773-5946,WILDER ACCOUNTING & TAX SVC,,
MONTESSORI KIDS LEARNING CTR,800 W LAKE MARY BLVD,SANFORD,FL,32773-5907,MONTESSORI KIDS LEARNING CTR,,
LAKE MARY KINDERCARE,910 W LAKE MARY BLVD,SANFORD,FL,32773-5907,LAKE MARY KINDERCARE,,
DISH NETWORK,750 W LAKE MARY BLVD,SANFORD,FL,32773-5933,DISH NETWORK,,
HOME ELEGANT PAINTING,113 WOODFIELD CT,SANFORD,FL,32773-5959,HOME ELEGANT PAINTING,,
FLORIDA BLUE,820 W LAKE MARY BLVD # 107,SANFORD,FL,32773-5946,FLORIDA BLUE,,
A & B INSURANCE & FINANCIAL,820 W LAKE MARY BLVD # 107,SANFORD,FL,32773-5946,A & B INSURANCE & FINANCIAL,,
GILCHRIST INS & FINANCIAL SVC,820 W LAKE MARY BLVD # 202,SANFORD,FL,32773-5946,GILCHRIST INS & FINANCIAL SVC,,
DALTON PLACE EQUITY ENT,12411 GROVEVIEW WAY,SANFORD,FL,32773-5990,DALTON PLACE EQUITY ENT,,
NU CHANGEZ UNISEX SALON,820 W LAKE MARY BLVD,SANFORD,FL,32773-5946,NU CHANGEZ UNISEX SALON,,
IMAGE TEAM INC,205 SPRINGVIEW DR,SANFORD,FL,32773-5964,IMAGE TEAM INC,,
COUNTRY CLUB FLOWERS,820 W LAKE MARY BLVD # 101,SANFORD,FL,32773-5946,COUNTRY CLUB FLOWERS,,
NORTH AMERICAN EXPRESS INC,102 OAK VIEW PL,SANFORD,FL,32773-7426,NORTH AMERICAN EXPRESS INC,,
CUBAN AMERICAN DELI,750 W LAKE MARY BLVD,SANFORD,FL,32773-5933,CUBAN AMERICAN DELI,,
YELLOWBIRD CONSIGNMENT,700 W LAKE MARY BLVD # S1-2,SANFORD,FL,32773-5933,YELLOWBIRD CONSIGNMENT,,
BARNES & NOBLE,100 WELDON BLVD,SANFORD,FL,32773-6132,BARNES & NOBLE,,
NATURE'S TABLE CAFE,100 WELDON BLVD,SANFORD,FL,32773-6132,NATURE'S TABLE CAFE,,
CENTRAL FL AUTO DLRS ASSC INC,100 WELDON BLVD,SANFORD,FL,32773-6132,CENTRAL FL AUTO DLRS ASSC INC,,
LEARNING RESOURCE CTR,100 WELDON BLVD,SANFORD,FL,32773-6132,LEARNING RESOURCE CTR,,
SEMINOLE STATE COLLEGE,100 WELDON BLVD,SANFORD,FL,32773-6132,SEMINOLE STATE COLLEGE,,
MEALS ON WHEELS,2801 S FINANCIAL CT # 1001,SANFORD,FL,32773-6418,MEALS ON WHEELS,,
KIDS HOUSE OF SEMINOLE,5467 COUNTY ROAD 427,SANFORD,FL,32773-6332,KIDS HOUSE OF SEMINOLE,,
SHEET METAL WORKERS INTL ASSN,2688 S DESIGN CT,SANFORD,FL,32773-8120,SHEET METAL WORKERS INTL ASSN,,
PARALYZED VETERANS OF AMERICA,2711 S DESIGN CT,SANFORD,FL,32773-8120,PARALYZED VETERANS OF AMERICA,,
SPAULDING ENTERPRISES,5329 PEN AVE,SANFORD,FL,32773-9468,SPAULDING ENTERPRISES,,
CUSTOM CALIBRATION SOLUTIONS,2639 N DESIGN CT # 1017,SANFORD,FL,32773-8175,CUSTOM CALIBRATION SOLUTIONS,,
COUNTRY ARCHITECTURAL CONCEPTS,5256 TOWER WAY,SANFORD,FL,32773-8201,COUNTRY ARCHITECTURAL CONCEPTS,,
PET ALLIANCE-GREATER ORLANDO,2800 COUNTY HOME RD,SANFORD,FL,32773-6311,PET ALLIANCE-GREATER ORLANDO,,
FLORIDA DISTRICT-KIWANIS INTL,5545 BENCHMARK LN,SANFORD,FL,32773-8116,FLORIDA DISTRICT-KIWANIS INTL,,
SPRING MEADOWS SDA CHURCH,5783 COUNTY ROAD 427,SANFORD,FL,32773-6334,SPRING MEADOWS SDA CHURCH,,
ADAPCO,2800 S FINANCIAL CT,SANFORD,FL,32773-8118,ADAPCO,,
KIWANIS DISTRICT,5545 BENCHMARK LN,SANFORD,FL,32773-8116,KIWANIS DISTRICT,,
UNITED BATTERIES & ACCES,5544 BENCHMARK LN # 200,SANFORD,FL,32773-8112,UNITED BATTERIES & ACCES,,
WORKMAN ENTERPRISES,5401 S BRYANT AVE,SANFORD,FL,32773-6472,WORKMAN ENTERPRISES,,
FLORIDA RUST LLC,5449 BENCHMARK LN # 173,SANFORD,FL,32773-8137,FLORIDA RUST LLC,,
MEADOWS ACADEMY,5779 COUNTY ROAD 427,SANFORD,FL,32773-6334,MEADOWS ACADEMY,,
FLEET PRO MOBILE,2867 STONEWALL PL # 117,SANFORD,FL,32773-8139,FLEET PRO MOBILE,,
AUTO IMAGES MOBILE,5437 BENCHMARK LN,SANFORD,FL,32773-6433,AUTO IMAGES MOBILE,,
JUST BRAKES,4231 N US HIGHWAY 17/92,SANFORD,FL,32773-6125,JUST BRAKES,,
DOCS CUSTOM TRANSMISSIONS,4175 COUNTY ROAD 427,SANFORD,FL,32773-6316,DOCS CUSTOM TRANSMISSIONS,,
FURNITURE MEDIC,5360 MCINTOSH PT # 114,SANFORD,FL,32773-8140,FURNITURE MEDIC,,
BOHEMIAN IRON,2902 STONEWALL PL # 100,SANFORD,FL,32773-6439,BOHEMIAN IRON,,
OVER THE HILL FARM,5130 THOMAS STABLE RD,SANFORD,FL,32773-6496,OVER THE HILL FARM,,
AFFORDABLE HOME APPLIANCE,5473 BENCHMARK LN # 101,SANFORD,FL,32773-8136,AFFORDABLE HOME APPLIANCE,,
RETAIL SERVICES INC,2664 N DESIGN CT,SANFORD,FL,32773-8119,RETAIL SERVICES INC,,
ALWAYS BAIL BONDS A,4195 N US HIGHWAY 17/92,SANFORD,FL,32773-6193,ALWAYS BAIL BONDS A,,
C B S OUTDOOR,2687 S DESIGN CT,SANFORD,FL,32773-8120,C B S OUTDOOR,,
I C M DISTRIBUTING CO INC,2788 S FINANCIAL CT,SANFORD,FL,32773-8118,I C M DISTRIBUTING CO INC,,
ALLSTATE INSURANCE,4240 N US HIGHWAY 17/92,SANFORD,FL,32773-6158,ALLSTATE INSURANCE,,
SAMUELS AUTO CORP,5508 BENCHMARK LN # 120,SANFORD,FL,32773-8170,SAMUELS AUTO CORP,,
HENRYS FRAME REPAIR INC,5508 BENCHMARK LN # 112,SANFORD,FL,32773-8170,HENRYS FRAME REPAIR INC,,
CAPITOL CARPET CARE INC,5497 BENCHMARK LN # 125,SANFORD,FL,32773-6404,CAPITOL CARPET CARE INC,,
STEPHEN SCHETTINO AGT,4240 N US HIGHWAY 17/92,SANFORD,FL,32773-6158,ALLSTATE FINANCIAL SVC,,
MCINTOSH POINT RENTALS,5360 MCINTOSH PT # 128,SANFORD,FL,32773-8141,MCINTOSH POINT RENTALS,,
ALLIANCE BUILDING MATERIAL,5401 S BRYANT AVE,SANFORD,FL,32773-6472,ALLIANCE BUILDING MATERIAL,,
AURORA LASER PRODUCTS INC,2639 N DESIGN CT # 1001,SANFORD,FL,32773-8175,AURORA LASER PRODUCTS INC,,
AQUATIC SYSTEMS INC,2660 N DESIGN CT,SANFORD,FL,32773-8119,AQUATIC SYSTEMS INC,,
SPRINKLER REPAIR INC,5005 COUNTY ROAD 427,SANFORD,FL,32773-6328,SPRINKLER REPAIR INC,,
HESSENAUER IRRIGATION,5320 MCINTOSH PT,SANFORD,FL,32773-8144,HESSENAUER IRRIGATION,,
GRAPHIC EQUIPMENT SVC INC,5401 PEN AVE,SANFORD,FL,32773-9417,GRAPHIC EQUIPMENT SVC INC,,
RILEY & CO INC,5491 BENCHMARK LN,SANFORD,FL,32773-6433,RILEY & CO INC,,
SKYLINK,2800 S FINANCIAL CT,SANFORD,FL,32773-8118,SKYLINK,,
HYDROCOM TECHNOLOGIES,5312 MCINTOSH PT,SANFORD,FL,32773-8144,HYDROCOM TECHNOLOGIES,,
INCON LIGHTING MFG,5481 S BRYANT AVE,SANFORD,FL,32773-6472,INCON LIGHTING MFG,,
CRYSTAL PHOTONICS INC,5525 BENCHMARK LN,SANFORD,FL,32773-8115,CRYSTAL PHOTONICS INC,,
G C F X LLC,5350 MCINTOSH PT # 118,SANFORD,FL,32773-8149,G C F X LLC,,
KITCHEN MEDIC INC,2627 N DESIGN CT # 2,SANFORD,FL,32773-8119,KITCHEN MEDIC INC,,
OCEANIC TEAK FURNITURE LLC,5278 TOWER WAY,SANFORD,FL,32773-8201,OCEANIC TEAK FURNITURE LLC,,
TEAK FURNITURE LLC,5278 TOWER WAY,SANFORD,FL,32773-8201,TEAK FURNITURE LLC,,
KRISTINA LIGHTING,5481 S BRYANT AVE,SANFORD,FL,32773-6472,KRISTINA LIGHTING,,
HEADQUARTER HYUNDAI,3775 N US HIGHWAY 17/92,SANFORD,FL,32773-6119,HEADQUARTER HYUNDAI,,
BRAKE BOY'S AUTO,5441 S BRYANT AVE,SANFORD,FL,32773-6472,BRAKE BOY'S AUTO,,
SERIES 9 MOTORSPORTS,5449 BENCHMARK LN # 141,SANFORD,FL,32773-8137,SERIES 9 MOTORSPORTS,,
MID FLORIDA WHOLESALER INC,4175 COUNTY ROAD 427,SANFORD,FL,32773-6316,MID FLORIDA WHOLESALER INC,,
SKY PAXXX,2800 S FINANCIAL CT,SANFORD,FL,32773-8118,SKY PAXXX,,
KUNZ CONTRACTS FLOORING,2716 N FINANCIAL CT # 108,SANFORD,FL,32773-8126,KUNZ CONTRACTS FLOORING,,
CETZERFA GRAFIX,2625 N DESIGN CT,SANFORD,FL,32773-8119,CETZERFA GRAFIX,,
WELLINGTON PROFESSIONAL STUCCO,2920 STONEWALL PL,SANFORD,FL,32773-6400,WELLINGTON PROFESSIONAL STUCCO,,
BOYER PREMIUM HM FINISHES LLC,5312 MCINTOSH PT,SANFORD,FL,32773-8144,BOYER PREMIUM HM FINISHES LLC,,
BNG CONSTRUCTION,2995 STONEWALL PL,SANFORD,FL,32773-6431,BNG CONSTRUCTION,,
T MARK ROOFING INC,5324 MCINTOSH PT,SANFORD,FL,32773-8144,T MARK ROOFING INC,,
KENNEDY SKYLIGHTS,5294 TOWER WAY,SANFORD,FL,32773-8201,KENNEDY SKYLIGHTS,,
STILLWATER MILLWORK INC,2700 S DESIGN CT,SANFORD,FL,32773-8120,STILLWATER MILLWORK INC,,
TRIM MILL INC,2788 S FINANCIAL CT,SANFORD,FL,32773-8118,TRIM MILL INC,,
FATEZZI INC,5305 PEN AVE,SANFORD,FL,32773-9468,FATEZZI INC,,
CHAMPAGNE POOLS,5497 BENCHMARK LN # 101,SANFORD,FL,32773-6438,CHAMPAGNE POOLS,,
SPECIALTY CONSTRUCTION & DSGN,2789 S FINANCIAL CT,SANFORD,FL,32773-8118,SPECIALTY CONSTRUCTION & DSGN,,
CRAFTWORKS INC,2777 S FINANCIAL CT,SANFORD,FL,32773-8118,CRAFTWORKS INC,,
JOHN DEERE LANDSCAPES,5316 MCINTOSH PT,SANFORD,FL,32773-8144,JOHN DEERE LANDSCAPES,,
GRASS ROOTS LAWN SVC,5318 MCINTOSH PT,SANFORD,FL,32773-8144,GRASS ROOTS LAWN SVC,,
SPRINKLER REPAIR & LANDSCAPE,5005 COUNTY ROAD 427,SANFORD,FL,32773-6328,SPRINKLER REPAIR & LANDSCAPE,,
ENCOMPASS ENTERPRISES,2938 STONEWALL PL # 104,SANFORD,FL,32773-6401,ENCOMPASS ENTERPRISES,,
HARPER LIMBACH,5401 BENCHMARK LN,SANFORD,FL,32773-6433,HARPER LIMBACH,,
SPAULDING CONSTRUCTIONS,5278 TOWER WAY,SANFORD,FL,32773-8201,SPAULDING CONSTRUCTIONS,,
LIMBACH CO LLC,5401 BENCHMARK LN,SANFORD,FL,32773-6433,LIMBACH CO LLC,,
MOBILITY MEDICA L EQUIPMENT,4195 N US HIGHWAY 17/92,SANFORD,FL,32773-6193,MOBILITY MEDICA L EQUIPMENT,,
JAY FAB INC,5329 PEN AVE,SANFORD,FL,32773-9468,JAY FAB INC,,
MODEL MACHINES LLC,5360 MCINTOSH PT # 120,SANFORD,FL,32773-8140,MODEL MACHINES LLC,,
CONCEPTUAL ENGINEERING INC,5360 MCINTOSH PT # 124,SANFORD,FL,32773-8141,CONCEPTUAL ENGINEERING INC,,
WAYNE METAL PRODUCTS INC,5461 BENCHMARK LN,SANFORD,FL,32773-6433,WAYNE METAL PRODUCTS INC,,
CONTROL TECHNOLOGIES INC,2776 S FINANCIAL CT,SANFORD,FL,32773-8176,CONTROL TECHNOLOGIES INC,,
ARTISTIC CREATIONS,5421 S BRYANT AVE,SANFORD,FL,32773-6472,ARTISTIC CREATIONS,,
TECH INSTALLATIONS INC,5000 NOLAN RD,SANFORD,FL,32773-9423,TECH INSTALLATIONS INC,,
TECHNIGRAFIX INC,5744 AUTUMN CHASE CIR,SANFORD,FL,32773-8142,TECHNIGRAFIX INC,,
THORNE & SON LAND CLEARING,1400 MYRTLE ST,SANFORD,FL,32773-8106,THORNE & SON LAND CLEARING,,
COMPUTER,5824 GREAT EGRET DR,SANFORD,FL,32773-7017,COMPUTER,,
MOD TOTS,1476 BARN OWL LOOP,SANFORD,FL,32773-7032,MOD TOTS,,
CHUCK BAILEY INSTALLATIONS INC,5921 NOLAN RD,SANFORD,FL,32773-7016,CHUCK BAILEY INSTALLATIONS INC,,
UNIVERSAL AWNING & SIGN,5890 NOLAN RD,SANFORD,FL,32773-7015,UNIVERSAL AWNING & SIGN,,
JAFFERREACHOUT FOUNDATION,786 MYRTLE ST,SANFORD,FL,32773-7068,JAFFERREACHOUT FOUNDATION,,
RELIABLE RATE PLUMBING,PO BOX 740106,ORANGE CITY,FL,32774-3513,RELIABLE RATE PLUMBING,,
CHASER POOL SVC INC,PO BOX 455,TAVARES,FL,32778-5485,CHASER POOL SVC INC,,
CURTIS F DANIELS WALLPAPERING,195 VISTA OAK DR,LONGWOOD,FL,32779-3012,CURTIS F DANIELS WALLPAPERING,,
WINGFIELD NORTH SECURITY OFC,100 VISTA OAK DR,LONGWOOD,FL,32779-3008,WINGFIELD NORTH SECURITY OFC,,
EN-DATA CORP,208 VISTA OAK DR,LONGWOOD,FL,32779-3010,EN-DATA CORP,,
COSMETIC PLASTIC SURG SPECLSTS,2716 DEER BERRY CT,LONGWOOD,FL,32779-3071,COSMETIC PLASTIC SURG SPECLSTS,,
TURNING LEAF CONSTRUCTION,2724 DEER BERRY CT,LONGWOOD,FL,32779-3071,TURNING LEAF CONSTRUCTION,,
ASIAN CULTURAL ASSN,2759 MARSH WREN CIR,LONGWOOD,FL,32779-3004,ASIAN CULTURAL ASSN,,
ROBERT A TANGO PHD PA,2315 MARKHAM WOODS RD,LONGWOOD,FL,32779-3076,ROBERT A TANGO PHD PA,,
MARKHAM WOODS SEVENTH-DAY,505 MARKHAM WOODS RD,LONGWOOD,FL,32779-2835,MARKHAM WOODS SEVENTH-DAY,,
NEIGHBORHOOD ALLIANCE CHURCH,301 MARKHAM WOODS RD,LONGWOOD,FL,32779-2831,NEIGHBORHOOD ALLIANCE CHURCH,,
CHURCH ON THE LIVING EDGE,555 MARKHAM WOODS RD,LONGWOOD,FL,32779-2835,CHURCH ON THE LIVING EDGE,,
HIGHER CALL INTL CHURCH,555 MARKHAM WOODS RD,LONGWOOD,FL,32779-2835,HIGHER CALL INTL CHURCH,,
STOP LOSS RECOVERY SVC INC,660 FERNE DR,LONGWOOD,FL,32779-2815,STOP LOSS RECOVERY SVC INC,,
TEMPLE ISRAEL RELIGIOUS SCHOOL,555 MARKHAM WOODS RD,LONGWOOD,FL,32779-2835,TEMPLE ISRAEL RELIGIOUS SCHOOL,,
FORTUNE PERSONNEL CONSULTANTS,978 INNSWOOD CT,LONGWOOD,FL,32779-2807,FORTUNE PERSONNEL CONSULTANTS,,
GOLDSTAR FINANCIAL INC,1901 WINGFIELD DR,LONGWOOD,FL,32779-7010,GOLDSTAR FINANCIAL INC,,
SPECTRA-PHYSICS INC,1845 WINGFIELD DR,LONGWOOD,FL,32779-2709,SPECTRA-PHYSICS INC,,
ALCATEL-LUCENT,1735 RUTLEDGE RD,LONGWOOD,FL,32779-2718,ALCATEL-LUCENT,,
3 GUYS SOLAR LLC,1681 EE WILLIAMSON RD # 1005,LONGWOOD,FL,32779-2859,3 GUYS SOLAR LLC,,
NATIONAL CHEMICAL,1062 EDMISTON PL,LONGWOOD,FL,32779-2799,NATIONAL CHEMICAL,,
DISCOUNT POOL SUPPLIES,25 STONE GATE N,LONGWOOD,FL,32779-3025,DISCOUNT POOL SUPPLIES,,
BOLLING FOREST PRODUCTS INC,1705 EE WILLIAMSON RD,LONGWOOD,FL,32779-2841,BOLLING FOREST PRODUCTS INC,,
FRAGATA CONSTRUCTION,1681 EE WILLIAMSON RD,LONGWOOD,FL,32779-2859,FRAGATA CONSTRUCTION,,
MARKHAM WOODS ANIMAL HOSPITAL,1645 EE WILLIAMSON RD,LONGWOOD,FL,32779-2839,MARKHAM WOODS ANIMAL HOSPITAL,,
ACCURATE IMAGING SYSTEMS INC,1056 EDMISTON PL,LONGWOOD,FL,32779-2799,ACCURATE IMAGING SYSTEMS INC,,
SELECTWO MACHINE CO,1695 EE WILLIAMSON RD,LONGWOOD,FL,32779-2839,SELECTWO MACHINE CO,,
CREATIVE FORMS & SUPPLIES INC,1742 FIFESHIRE CT,LONGWOOD,FL,32779-2771,CREATIVE FORMS & SUPPLIES INC,,
BULL & BEAR FINANCIAL REPORT,1551 SUNSHINE TREE BLVD,LONGWOOD,FL,32779-7027,BULL & BEAR FINANCIAL REPORT,,
A TIP TOP PRINT SHOP INC,1675 EE WILLIAMSON RD,LONGWOOD,FL,32779-2842,A TIP TOP PRINT SHOP INC,,
VEGAS HI-TECH AUTO BODY,1675 EE WILLIAMSON RD,LONGWOOD,FL,32779-2842,VEGAS HI-TECH AUTO BODY,,
STAR HAULING,1747 SUNWOOD DR,LONGWOOD,FL,32779-2792,STAR HAULING,,
SPRINGS FLORIST INC,1681 EE WILLIAMSON RD # 1001,LONGWOOD,FL,32779-2859,SPRINGS FLORIST INC,,
SPRING FLORIST & GIFT,1681 EE WILLIAMSON RD # 1001,LONGWOOD,FL,32779-2859,SPRING FLORIST & GIFT,,
MARKHAM WOODS CLEANERS,1675 EE WILLIAMSON RD # 1024,LONGWOOD,FL,32779-2842,MARKHAM WOODS CLEANERS,,
ONE SCHOOL OF THE ARTS,1675 DIXON RD,LONGWOOD,FL,32779-2762,ONE SCHOOL OF THE ARTS,,
DNA HEALTH & WELLNESS,1010 EDMISTON PL,LONGWOOD,FL,32779-2774,DNA HEALTH & WELLNESS,,
FOCUS ON YOU INTEGRATED,1521 SUNSHINE TREE BLVD,LONGWOOD,FL,32779-2752,FOCUS ON YOU INTEGRATED,,
WORLD GATE ENTERTAINMENT,9 ROBINWOOD DR,LONGWOOD,FL,32779-3027,WORLD GATE ENTERTAINMENT,,
FAIR AUTO SVC CTR,1675 EE WILLIAMSON RD # 1030,LONGWOOD,FL,32779-2842,FAIR AUTO SVC CTR,,
WEKIVA ASSEMBLY OF GOD,1675 DIXON RD,LONGWOOD,FL,32779-2762,WEKIVA ASSEMBLY OF GOD,,
BRIDGE CHRISTIAN FELLOWSHIP,1681 EE WILLIAMSON RD # 1001,LONGWOOD,FL,32779-2859,BRIDGE CHRISTIAN FELLOWSHIP,,
LONGWOOD AQUATIC CLUB INC,1655 EE WILLIAMSON RD,LONGWOOD,FL,32779-2839,LONGWOOD AQUATIC CLUB INC,,
SUNRISE COMMUNITY,2801 WALDENS POND CV,LONGWOOD,FL,32779-7037,SUNRISE COMMUNITY,,
SOMMERVILLE KID'S KLUB,1665 EE WILLIAMSON RD,LONGWOOD,FL,32779-2839,SOMMERVILLE KID'S KLUB,,
HEARKEN MEDIA GROUP LLC,1675 EE WILLIAMSON RD,LONGWOOD,FL,32779-2842,HEARKEN MEDIA GROUP LLC,,
HORIZON DUPLICATION INC,841 NICOLET AVE # 5,WINTER PARK,FL,32789-3629,HORIZON DUPLICATION INC,,
BUSY BEE LOCK & KEY INC,PO BOX 2075,WINTER PARK,FL,32790-5034,BUSY BEE LOCK & KEY INC,,
DART ENGINEERING,PO BOX 915049,LONGWOOD,FL,32791-7653,DART ENGINEERING,,
MAXINE ANASTASIA,PO BOX 916065,LONGWOOD,FL,32791-5162,LONGWOOD FAMILY MEDICINE,,
TPH LAKE MARY LLC,PO BOX 4844,WINTER PARK,FL,32793-2411,TPH LAKE MARY LLC,,
PITA PIT,PO BOX 4844,WINTER PARK,FL,32793-2411,PITA PIT,,
BELINDA JUDGE M A LMHC INC,PO BOX 950036,LAKE MARY,FL,32795-3566,BELINDA JUDGE M A LMHC INC,,
MID-CITY SPECIAL SVC,PO BOX 950142,LAKE MARY,FL,32795-6133,MID-CITY SPECIAL SVC,,
POOLMASTERS OF ORLANDO,PO BOX 950063,LAKE MARY,FL,32795-0063,POOLMASTERS OF ORLANDO,,
ABEL'S IRRIGATION,PO BOX 950161,LAKE MARY,FL,32795-0161,ABEL'S IRRIGATION,,
ANDREW WOODMAN HANDYMAN,PO BOX 950332,LAKE MARY,FL,32795-0332,ANDREW WOODMAN HANDYMAN,,
BRANDON M LESTER AGT,PO BOX 950356,LAKE MARY,FL,32795-0356,BRANDON M LESTER AGT,,
FLORIDA ONSITE WASTEWATER ASSN,PO BOX 950368,LAKE MARY,FL,32795-4162,FLORIDA ONSITE WASTEWATER ASSN,,
NO LIMITS CHURCH,PO BOX 950328,LAKE MARY,FL,32795-3407,NO LIMITS CHURCH,,
COUNTRYSIDE BAPTIST CHURCH,PO BOX 950418,LAKE MARY,FL,32795-3919,COUNTRYSIDE BAPTIST CHURCH,,
ROTARY CLUB LAKE MARY,PO BOX 950535,LAKE MARY,FL,32795-0535,ROTARY CLUB LAKE MARY,,
EDITORS & WRITERS INC,PO BOX 950523,LAKE MARY,FL,32795-0523,EDITORS & WRITERS INC,,
SHEA BARCLAY GROUP,PO BOX 950442,LAKE MARY,FL,32795-0442,SHEA BARCLAY GROUP,,
JUANITA E ADDEO PROECHEL ASA,PO BOX 950515,LAKE MARY,FL,32795-0515,JUANITA E ADDEO PROECHEL ASA,,
CONCEPT ACQUISITIONS LLC,PO BOX 950459,LAKE MARY,FL,32795-3622,CONCEPT ACQUISITIONS LLC,,
COLLECT-US.COM INC,PO BOX 950427,LAKE MARY,FL,32795-0427,COLLECT-US.COM INC,,
POOLNURSESPOOLSERVICEPOOLNURSE,PO BOX 950563,LAKE MARY,FL,32795-0563,POOLNURSESPOOLSERVICEPOOLNURSE,,
JACKSON HEWITT TAX SVC,PO BOX 950574,LAKE MARY,FL,32795-0574,JACKSON HEWITT TAX SVC,,
MONTS LAW,PO BOX 950549,LAKE MARY,FL,32795-3501,MONTS LAW,,
LAKE MARY BUILDING INSPECTIONS,PO BOX 950700,LAKE MARY,FL,32795-2177,LAKE MARY BUILDING INSPECTIONS,,
ABC MOTHERS/TCHRS/NNNS/GRNNS,PO BOX 950812,LAKE MARY,FL,32795-0812,ABC MOTHERS/TCHRS/NNNS/GRNNS,,
LAURENCE C SEIGLER DC,PO BOX 950996,LAKE MARY,FL,32795-3595,LAURENCE C SEIGLER DC,,
TITAN GROUP,PO BOX 950906,LAKE MARY,FL,32795-0906,TITAN GROUP,,
AIR MASTERS,PO BOX 950967,LAKE MARY,FL,32795-0967,AIR MASTERS,,
1 CALL CURES ALL TREE & LDSCP,PO BOX 951312,LAKE MARY,FL,32795-1312,1 CALL CURES ALL TREE & LDSCP,,
UPHOLSTERY BY MARK FISK,PO BOX 951324,LAKE MARY,FL,32795-1324,UPHOLSTERY BY MARK FISK,,
YELLOW BRICK ENTERPRISES,PO BOX 951396,LAKE MARY,FL,32795-1396,YELLOW BRICK ENTERPRISES,,
3 C STUDIOS,PO BOX 951434,LAKE MARY,FL,32795-2712,3 C STUDIOS,,
DANIELS LAWN SVC & PRESSURE,PO BOX 951536,LAKE MARY,FL,32795-1536,DANIELS LAWN SVC & PRESSURE,,
PARAMT ADVISORS LLC,PO BOX 951598,LAKE MARY,FL,32795-3594,PARAMT ADVISORS LLC,,
CHRISTIAN FINANCIAL RESOURCES,PO BOX 951719,LAKE MARY,FL,32795-4856,CHRISTIAN FINANCIAL RESOURCES,,
COURY LAW FIRM,PO BOX 951763,LAKE MARY,FL,32795-3535,COURY LAW FIRM,,
JOSHUA COMPUTER SVC,PO BOX 951707,LAKE MARY,FL,32795-1707,JOSHUA COMPUTER SVC,,
TAF RICA CORP,PO BOX 951677,LAKE MARY,FL,32795-1677,TAF RICA CORP,,
HLO TOURS INC,PO BOX 951797,LAKE MARY,FL,32795-6334,HLO TOURS INC,,
COVENANT COMMUNITY CHURCH,PO BOX 951958,LAKE MARY,FL,32795-9468,COVENANT COMMUNITY CHURCH,,
RESPLENDENCY INC,PO BOX 952095,LAKE MARY,FL,32795-2095,RESPLENDENCY INC,,
SFM ENTERPRISES,PO BOX 952364,LAKE MARY,FL,32795-2364,SFM ENTERPRISES,,
LAWRENCE T VANCE & ASSOC PA,PO BOX 952409,LAKE MARY,FL,32795-5058,LAWRENCE T VANCE & ASSOC PA,,
COMMERCIAL EXPRESS INC,PO BOX 952675,LAKE MARY,FL,32795-2675,COMMERCIAL EXPRESS INC,,
MCDONALD FARMS INC,PO BOX 952651,LAKE MARY,FL,32795-2651,MCDONALD FARMS INC,,
ATMOR MORTGAGE DBA,PO BOX 952674,LAKE MARY,FL,32795-3847,ATMOR MORTGAGE DBA,,
WOMENS HEALTH CTR-CENTRAL FL,PO BOX 952816,LAKE MARY,FL,32795-3473,WOMENS HEALTH CTR-CENTRAL FL,,
TOWNE CENTER INSURANCE,PO BOX 953188,LAKE MARY,FL,32795-5348,TOWNE CENTER INSURANCE,,
CHRISTOPHER PALUMBO AGT,PO BOX 953188,LAKE MARY,FL,32795-3188,CHRISTOPHER PALUMBO AGT,,
MICHALSKI METAL BLDG SYSTEMS,PO BOX 953183,LAKE MARY,FL,32795-4292,MICHALSKI METAL BLDG SYSTEMS,,
PGA,PO BOX 953173,LAKE MARY,FL,32795-3173,PGA,,
SQUITERI PLUMBING,PO BOX 953221,LAKE MARY,FL,32795-3221,SQUITERI PLUMBING,,
AIGILIS CORP,PO BOX 953279,LAKE MARY,FL,32795-3279,AIGILIS CORP,,
NEW YORK LIFE,PO BOX 953216,LAKE MARY,FL,32795-3413,NEW YORK LIFE,,
ORBENT SAFETY SOLUTIONS LLC,PO BOX 953277,LAKE MARY,FL,32795-6708,ORBENT SAFETY SOLUTIONS LLC,,
BAYRIDGE POOLS INC,PO BOX 953394,LAKE MARY,FL,32795-3394,BAYRIDGE POOLS INC,,
INTERACTIVE CONSULTING,PO BOX 953459,LAKE MARY,FL,32795-5202,INTERACTIVE CONSULTING,,
BACKFLO TESTING CO,PO BOX 953759,LAKE MARY,FL,32795-3759,BACKFLO TESTING CO,,
MARCIA K LIPPINCOTT PA,PO BOX 953693,LAKE MARY,FL,32795-3693,MARCIA K LIPPINCOTT PA,,
LIFEPOINT CHRISTIAN CHURCH INC,PO BOX 953923,LAKE MARY,FL,32795-7132,LIFEPOINT CHRISTIAN CHURCH INC,,
MILLENIA INDUSTRIES CORP,PO BOX 953909,LAKE MARY,FL,32795-3909,MILLENIA INDUSTRIES CORP,,
RENT A HOME LLC,PO BOX 954046,LAKE MARY,FL,32795-4046,RENT A HOME LLC,,
LAKE MARY COMPUTERS,PO BOX 954014,LAKE MARY,FL,32795-3487,LAKE MARY COMPUTERS,,
COST SEGREGATION ADVISOR LLC,PO BOX 954001,LAKE MARY,FL,32795-4001,COST SEGREGATION ADVISOR LLC,,
DEBORAH K CAINES LLC,PO BOX 953965,LAKE MARY,FL,32795-3965,DEBORAH K CAINES LLC,,
JUST OUR SOLDIERS' HELPERS INC,PO BOX 954031,LAKE MARY,FL,32795-4031,JUST OUR SOLDIERS' HELPERS INC,,
PARADISE POOL SVC OF LAKE MARY,PO BOX 954143,LAKE MARY,FL,32795-4143,PARADISE POOL SVC OF LAKE MARY,,
CYTURA,PO BOX 954117,LAKE MARY,FL,32795-5020,CYTURA,,
A WILDLIFE SOLUTIONS,PO BOX 954114,LAKE MARY,FL,32795-4114,A WILDLIFE SOLUTIONS,,
MAGIC MEMORIES,PO BOX 954086,LAKE MARY,FL,32795-3409,MAGIC MEMORIES,,
ULTIMATE GLOBES,PO BOX 954224,LAKE MARY,FL,32795-4224,ULTIMATE GLOBES,,
LAKE MARY ENGINEERING,PO BOX 958445,LAKE MARY,FL,32795-2177,LAKE MARY ENGINEERING,,
LAKE MARY FIRE DEPT,PO BOX 958445,LAKE MARY,FL,32795-2177,LAKE MARY FIRE DEPT,,
LAKE MARY FINANCE DEPT,PO BOX 958445,LAKE MARY,FL,32795-3208,LAKE MARY FINANCE DEPT,,
LAKE MARY CITY FINANCE,PO BOX 958445,LAKE MARY,FL,32795-3525,LAKE MARY CITY FINANCE,,
LAKE MARY CITY MANAGER,PO BOX 958445,LAKE MARY,FL,32795-3525,LAKE MARY CITY MANAGER,,
LAKE MARY CITY CLERK,PO BOX 958445,LAKE MARY,FL,32795-3525,LAKE MARY CITY CLERK,,
LAKE MARY CITY UTILITIES,PO BOX 958445,LAKE MARY,FL,32795-3525,LAKE MARY CITY UTILITIES,,
LAKE MARY PLANNING & ZONING,PO BOX 958445,LAKE MARY,FL,32795-2177,LAKE MARY PLANNING & ZONING,,
LAKE MARY SENIOR CTR,PO BOX 958445,LAKE MARY,FL,32795-2177,LAKE MARY SENIOR CTR,,
GEORGE A HELM III PA,PO BOX 958464,LAKE MARY,FL,32795-8464,GEORGE A HELM III PA,,
BANKERS BANCORPORATION OF FLA,PO BOX 958423,LAKE MARY,FL,32795-8423,BANKERS BANCORPORATION OF FLA,,
LIBERTY MUTUAL,PO BOX 958416,LAKE MARY,FL,32795-5060,LIBERTY MUTUAL,,
PATRIOT NATIONAL,PO BOX 958470,LAKE MARY,FL,32795-7124,PATRIOT NATIONAL,,
PUBLIC RISK UNDERWRITERS OF FL,PO BOX 958455,LAKE MARY,FL,32795-2120,PUBLIC RISK UNDERWRITERS OF FL,,
JIM MC CRAE LAW OFFICE,PO BOX 1969,ORLANDO,FL,32802-1400,JIM MC CRAE LAW OFFICE,,
ACCURATE NETWORK SOLUTIONS,PO BOX 2287,ORLANDO,FL,32802-7619,ACCURATE NETWORK SOLUTIONS,,
ADVANCED INTERVENTIONAL PAIN,1170 S SEMORAN BLVD,ORLANDO,FL,32807-4137,ADVANCED INTERVENTIONAL PAIN,,
RACHEL NEUGROSCHEL,9200 SUMMIT CENTRE WAY # 308,ORLANDO,FL,32810-2507,RACHEL NEUGROSCHEL,,
ORLANDO FOOT & ANKLE CLINIC,PO BOX 140233,ORLANDO,FL,32814-1694,ORLANDO FOOT & ANKLE CLINIC,,
LIGHT INTEGRATION INC,PO BOX 141503,ORLANDO,FL,32814-7571,LIGHT INTEGRATION INC,,
UBREAKIFIX,11779 E COLONIAL DR,ORLANDO,FL,32817-6173,UBREAKIFIX,,
INTERVENTIONAL SPINE INST-FL,308 S HARBOR CITY BLVD # A,MELBOURNE,FL,32901-1407,INTERVENTIONAL SPINE INST-FL,,
TWO WAY MOTORS,PO BOX 25272,FORT LAUDERDALE,FL,33320-3153,TWO WAY MOTORS,,
JESS D SALINAS MD,5400 BROKEN SOUND BL NW # 600,BOCA RATON,FL,33487-3535,NATIONAL PAIN INSTITUTE,,
ELIZABETH HEIL MD,PO BOX 2580,RIVERVIEW,FL,33568-5166,ELIZABETH HEIL MD,,
FIRST BAPTIST CHR-ALTAMONTE,1710 US HIGHWAY 441,LEESBURG,FL,34748-6334,FIRST BAPTIST CHR-ALTAMONTE,,